TDRS 13                 
1 42915U 17047A   26181.44160808 -.00000090  00000+0  00000+0 0  9997
2 42915   3.4547   3.0521 0015172 108.1910 314.8280  1.00272674 32485
QZS-3 (MICHIBIKI-3)     
1 42917U 17048A   26181.54033192 -.00000337  00000+0  00000+0 0  9990
2 42917   0.0740 139.6648 0002291 317.0090 143.4908  1.00270120 32396
AMAZONAS 5              
1 42934U 17053A   26180.57634279 -.00000271  00000+0  00000+0 0  9997
2 42934   0.0312 327.8909 0001878  96.5276 359.7120  1.00270165 32168
ASIASAT 9               
1 42942U 17057A   26181.68200562  .00000000  00000+0  00000+0 0  9996
2 42942   0.0445  61.3788 0002618  27.6320 197.4272  1.00272426 31994
INTELSAT 37E (IS-37E)   
1 42950U 17059A   26181.44039475  .00000000  00000+0  00000+0 0  9994
2 42950   0.0248  31.0347 0002902  71.9734 316.0377  1.00268452 32198
BSAT-4A                 
1 42951U 17059B   26180.89537701 -.00000339  00000+0  00000+0 0  9994
2 42951   0.0395  26.4530 0004104  47.8238 275.8622  1.00272835 31926
QZS-4 (MICHIBIKI-4)     
1 42965U 17062A   26181.32690646 -.00000331  00000+0  00000+0 0  9992
2 42965  40.1009 343.3188 0746709 268.3129 282.6055  1.00295775 31936
SES-11 (ECHOSTAR 105)   
1 42967U 17063A   26181.59958080 -.00000079  00000+0  00000+0 0  9992
2 42967   0.0237 322.2319 0002996 135.0959 292.2430  1.00271769 31854
KOREASAT 5A             
1 42984U 17067A   26181.53764524 -.00000347  00000+0  00000+0 0  9995
2 42984   0.0121  36.5136 0001022  64.5143 124.2821  1.00270677 31661
ALCOMSAT 1              
1 43039U 17078A   26181.43900807 -.00000175  00000+0  00000+0 0  9993
2 43039   0.0167  40.9232 0002624  53.1488 317.6705  1.00271164 31429
SBIRS GEO-3 (USA 282)   
1 43162U 18009A   26180.69947299  .00000138  00000+0  00000+0 0  9996
2 43162   2.1926  12.6802 0002311  79.2719 278.2382  1.00273042 30968
AL YAH 3                
1 43174U 18012A   26181.43996140 -.00000146  00000+0  00000+0 0  9995
2 43174   1.5845  82.9633 0004154  13.6416 320.1761  1.00271651 30972
SES-14                  
1 43175U 18012B   26181.50579403 -.00000268  00000+0  00000+0 0  9998
2 43175   0.0167  30.3380 0001277  67.3166 315.5024  1.00270884  7152
GOES 17                 
1 43226U 18022A   26181.14101730 -.00000173  00000+0  00000+0 0  9995
2 43226   0.9685  85.5045 0000733  30.2079 123.7662  1.00272160 30557
HISPASAT 30W-6          
1 43228U 18023A   26181.08827654 -.00000205  00000+0  00000+0 0  9997
2 43228   0.0453  46.6834 0005935  33.3537 199.8970  1.00271214 30532
SUPERBIRD-B3            
1 43271U 18033A   26181.54569788 -.00000081  00000+0  00000+0 0  9990
2 43271   0.0071 337.5936 0001241 118.6041 180.8742  1.00272392 30191
HYLAS 4                 
1 43272U 18033B   26181.08085552  .00000000  00000+0  00000+0 0  9992
2 43272   0.0245  23.8204 0001486 102.5635 147.3608  1.00265627 30192
IRNSS-1I                
1 43286U 18035A   26179.79558490  .00000066  00000+0  00000+0 0  9992
2 43286  28.7805  74.0157 0017671 182.6115   1.5908  1.00277388 30197
USA 283                 
1 43339U 18036A   26178.72558420  .00000000  00000+0  00000+0 0  9995
2 43339   0.0104 356.5956 0000306 111.8147 202.7533  1.00270887 25394
COSMOS 2526             
1 43432U 18037A   26181.54059192 -.00000333  00000+0  00000+0 0  9996
2 43432   0.0309  62.8833 0000458 251.2640 287.1431  1.00278758 30093
APSTAR-6C               
1 43450U 18041A   26181.68434565 -.00000307  00000+0  00000+0 0  9998
2 43450   0.0446 304.3996 0000393  88.0346 266.6778  1.00270860 29940
BANGABANDHUSAT-1        
1 43463U 18044A   26181.53877191 -.00000352  00000+0  00000+0 0  9995
2 43463   0.0215  84.6273 0002101  20.5344 126.4965  1.00270350 29846
SES-12                  
1 43488U 18049A   26181.46271699 -.00000258  00000+0  00000+0 0  9995
2 43488   0.0121  12.2465 0000363 236.9656 290.8932  1.00270432 29555
FENGYUN 2H              
1 43491U 18050A   26181.45968365 -.00000121  00000+0  00000+0 0  9992
2 43491   3.0646  78.9260 0001756 121.3544 323.0462  1.00269700 29571
BEIDOU-2 IGSO-7         
1 43539U 18057A   26181.48163089 -.00000036  00000+0  00000+0 0  9990
2 43539  55.1979 162.9413 0104797 237.9284 159.8469  1.00247568 29265
TELSTAR 19V             
1 43562U 18059A   26180.57590946 -.00000269  00000+0  00000+0 0  9991
2 43562   0.0124  66.7930 0003024  50.1814 305.0096  1.00277010 29268
TELKOM 4 (MERAH PUTIH)  
1 43587U 18064A   26181.32274645 -.00000333  00000+0  00000+0 0  9995
2 43587   0.0258  78.9394 0001777  44.7883  18.8480  1.00270753 29016
TELSTAR 18V             
1 43611U 18069A   26181.04314153 -.00000283  00000+0  00000+0 0  9990
2 43611   0.0154 306.8938 0002171 142.7472 341.9947  1.00271220 28767
AZERSPACE 2 (IS-38)     
1 43632U 18074A   26181.52419722  .00000000  00000+0  00000+0 0  9996
2 43632   0.0251  26.8981 0001660  75.4056  50.1070  1.00270037 28588
HORIZONS-3E             
1 43633U 18074B   26180.69323295 -.00000019  00000+0  00000+0 0  9994
2 43633   0.0212 193.1190 0000455  97.6770  45.5517  1.00271768 28469
AEHF-4 (USA 288)        
1 43651U 18079A   26181.50189400 -.00000264  00000+0  00000+0 0  9990
2 43651   1.4361   5.0704 0059907 355.7155  30.9009  1.00268726 28433
BEIDOU-3 G1             
1 43683U 18085A   26181.56382487 -.00000101  00000+0  00000+0 0  9998
2 43683   2.9014  97.0155 0008581 352.7664 191.7445  1.00271120 28199
