OBJECT_NAME,OBJECT_ID,EPOCH,MEAN_MOTION,ECCENTRICITY,INCLINATION,RA_OF_ASC_NODE,ARG_OF_PERICENTER,MEAN_ANOMALY,EPHEMERIS_TYPE,CLASSIFICATION_TYPE,NORAD_CAT_ID,ELEMENT_SET_NO,REV_AT_EPOCH,BSTAR,MEAN_MOTION_DOT,MEAN_MOTION_DDOT
TDRS 13,2017-047A,2026-06-30T10:35:54.938112,1.00272674,.00151727,3.4547,3.0521,108.1910,314.8280,0,U,42915,999,3248,0,-.9E-6,0
QZS-3 (MICHIBIKI-3),2017-048A,2026-06-30T12:58:04.677888,1.00270120,.00022918,0.0740,139.6648,317.0090,143.4908,0,U,42917,999,3239,0,-.337E-5,0
AMAZONAS 5,2017-053A,2026-06-29T13:49:56.017056,1.00270165,.00018781,0.0312,327.8909,96.5276,359.7120,0,U,42934,999,3216,0,-.271E-5,0
ASIASAT 9,2017-057A,2026-06-30T16:22:05.285568,1.00272426,.0002618,0.0445,61.3788,27.6320,197.4272,0,U,42942,999,3199,0,0,0
INTELSAT 37E (IS-37E),2017-059A,2026-06-30T10:34:10.106400,1.00268452,.00029022,0.0248,31.0347,71.9734,316.0377,0,U,42950,999,3219,0,0,0
BSAT-4A,2017-059B,2026-06-29T21:29:20.573664,1.00272835,.00041043,0.0395,26.4530,47.8238,275.8622,0,U,42951,999,3192,0,-.339E-5,0
QZS-4 (MICHIBIKI-4),2017-062A,2026-06-30T07:50:44.718144,1.00295775,.07467097,40.1009,343.3188,268.3129,282.6055,0,U,42965,999,3193,0,-.331E-5,0
SES-11 (ECHOSTAR 105),2017-063A,2026-06-30T14:23:23.781120,1.00271769,.00029968,0.0237,322.2319,135.0959,292.2430,0,U,42967,999,3185,0,-.79E-6,0
KOREASAT 5A,2017-067A,2026-06-30T12:54:12.548736,1.00270677,.00010226,0.0121,36.5136,64.5143,124.2821,0,U,42984,999,3166,0,-.347E-5,0
ALCOMSAT 1,2017-078A,2026-06-30T10:32:10.297248,1.00271164,.00026246,0.0167,40.9232,53.1488,317.6705,0,U,43039,999,3142,0,-.175E-5,0
SBIRS GEO-3 (USA 282),2018-009A,2026-06-29T16:47:14.466336,1.00273042,.00023114,2.1926,12.6802,79.2719,278.2382,0,U,43162,999,3096,0,.138E-5,0
AL YAH 3,2018-012A,2026-06-30T10:33:32.664960,1.00271651,.00041549,1.5845,82.9633,13.6416,320.1761,0,U,43174,999,3097,0,-.146E-5,0
SES-14,2018-012B,2026-06-30T12:08:20.604192,1.00270884,.00012772,0.0167,30.3380,67.3166,315.5024,0,U,43175,999,715,0,-.268E-5,0
GOES 17,2018-022A,2026-06-30T03:23:03.894720,1.00272160,.00007332,0.9685,85.5045,30.2079,123.7662,0,U,43226,999,3055,0,-.173E-5,0
HISPASAT 30W-6,2018-023A,2026-06-30T02:07:07.093056,1.00271214,.00059356,0.0453,46.6834,33.3537,199.8970,0,U,43228,999,3053,0,-.205E-5,0
SUPERBIRD-B3,2018-033A,2026-06-30T13:05:48.296832,1.00272392,.00012413,0.0071,337.5936,118.6041,180.8742,0,U,43271,999,3019,0,-.81E-6,0
HYLAS 4,2018-033B,2026-06-30T01:56:25.916928,1.00265627,.00014869,0.0245,23.8204,102.5635,147.3608,0,U,43272,999,3019,0,0,0
IRNSS-1I,2018-035A,2026-06-28T19:05:38.535360,1.00277388,.0017671,28.7805,74.0157,182.6115,1.5908,0,U,43286,999,3019,0,.66E-6,0
USA 283,2018-036A,2026-06-27T17:24:50.474880,1.00270887,.0000306,0.0104,356.5956,111.8147,202.7533,0,U,43339,999,2539,0,0,0
COSMOS 2526,2018-037A,2026-06-30T12:58:27.141888,1.00278758,.00004581,0.0309,62.8833,251.2640,287.1431,0,U,43432,999,3009,0,-.333E-5,0
APSTAR-6C,2018-041A,2026-06-30T16:25:27.464160,1.00270860,.0000393,0.0446,304.3996,88.0346,266.6778,0,U,43450,999,2994,0,-.307E-5,0
BANGABANDHUSAT-1,2018-044A,2026-06-30T12:55:49.893024,1.00270350,.00021015,0.0215,84.6273,20.5344,126.4965,0,U,43463,999,2984,0,-.352E-5,0
SES-12,2018-049A,2026-06-30T11:06:18.747936,1.00270432,.00003633,0.0121,12.2465,236.9656,290.8932,0,U,43488,999,2955,0,-.258E-5,0
FENGYUN 2H,2018-050A,2026-06-30T11:01:56.667360,1.00269700,.00017568,3.0646,78.9260,121.3544,323.0462,0,U,43491,999,2957,0,-.121E-5,0
BEIDOU-2 IGSO-7,2018-057A,2026-06-30T11:33:32.908896,1.00247568,.01047979,55.1979,162.9413,237.9284,159.8469,0,U,43539,999,2926,0,-.36E-6,0
TELSTAR 19V,2018-059A,2026-06-29T13:49:18.577344,1.00277010,.00030242,0.0124,66.7930,50.1814,305.0096,0,U,43562,999,2926,0,-.269E-5,0
TELKOM 4 (MERAH PUTIH),2018-064A,2026-06-30T07:44:45.293280,1.00270753,.00017779,0.0258,78.9394,44.7883,18.8480,0,U,43587,999,2901,0,-.333E-5,0
TELSTAR 18V,2018-069A,2026-06-30T01:02:07.428192,1.00271220,.00021715,0.0154,306.8938,142.7472,341.9947,0,U,43611,999,2876,0,-.283E-5,0
AZERSPACE 2 (IS-38),2018-074A,2026-06-30T12:34:50.639808,1.00270037,.00016602,0.0251,26.8981,75.4056,50.1070,0,U,43632,999,2858,0,0,0
HORIZONS-3E,2018-074B,2026-06-29T16:38:15.326880,1.00271768,.00004557,0.0212,193.1190,97.6770,45.5517,0,U,43633,999,2846,0,-.19E-6,0
AEHF-4 (USA 288),2018-079A,2026-06-30T12:02:43.641600,1.00268726,.00599071,1.4361,5.0704,355.7155,30.9009,0,U,43651,999,2843,0,-.264E-5,0
BEIDOU-3 G1,2018-085A,2026-06-30T13:31:54.468768,1.00271120,.00085811,2.9014,97.0155,352.7664,191.7445,0,U,43683,999,2819,0,-.101E-5,0
